[{"OBJECT_NAME":"YAOGAN-36 02B","OBJECT_ID":"2022-133B","EPOCH":"2026-03-09T22:42:31.775904","MEAN_MOTION":15.30199518,"ECCENTRICITY":0.00056841,"INCLINATION":34.9983,"RA_OF_ASC_NODE":22.5268,"ARG_OF_PERICENTER":273.0351,"MEAN_ANOMALY":86.9715,"EPHEMERIS_TYPE":0,"CLASSIFICATION_TYPE":"U","NORAD_CAT_ID":54043,"ELEMENT_SET_NO":999,"REV_AT_EPOCH":18962,"BSTAR":0.00051218814,"MEAN_MOTION_DOT":0.00015352,"MEAN_MOTION_DDOT":0},{"OBJECT_NAME":"STARLINK-35809","OBJECT_ID":"2025-254AB","EPOCH":"2026-03-09T17:17:47.380128","MEAN_MOTION":15.30203479,"ECCENTRICITY":0.00011798,"INCLINATION":53.1589,"RA_OF_ASC_NODE":229.9053,"ARG_OF_PERICENTER":68.321,"MEAN_ANOMALY":291.7917,"EPHEMERIS_TYPE":0,"CLASSIFICATION_TYPE":"U","NORAD_CAT_ID":66373,"ELEMENT_SET_NO":999,"REV_AT_EPOCH":1901,"BSTAR":0.00094978282,"MEAN_MOTION_DOT":0.00027879,"MEAN_MOTION_DDOT":0}]
